start=new Date('2022-12-06T00:00:00.000Z').valueOf();
sats=[{"TLE_LINE1":"1 52279U 22041U   22339.25677909  .00012199  00000-0  75929-3 0  9995","REV_AT_EPOCH":"3465","COUNTRY_CODE":"US","EPOCH":"2022-12-05T06:09:45.713376","APOAPSIS":"537.955","EPHEMERIS_TYPE":"0","INCLINATION":"53.2204","DECAY_DATE":null,"TIME_SYSTEM":"UTC","ELEMENT_SET_NO":"999","SITE":"AFETR","FILE":"3682099","RCS_SIZE":"LARGE","LAUNCH_DATE":"2022-04-21","OBJECT_TYPE":"PAYLOAD","GP_ID":"219597255","REF_FRAME":"TEME","MEAN_MOTION_DDOT":"0.0000000000000","PERIAPSIS":"534.570","OBJECT_NAME":"STARLINK-3686","PERIOD":"95.365","OBJECT_ID":"2022-041U","MEAN_MOTION":"15.09980138","BSTAR":"0.00075929000000","ARG_OF_PERICENTER":"107.7692","MEAN_ANOMALY":"252.3568","SEMIMAJOR_AXIS":"6914.398","TLE_LINE2":"2 52279  53.2204  53.0016 0002448 107.7692 252.3568 15.09980138 34651","RA_OF_ASC_NODE":"53.0016","CLASSIFICATION_TYPE":"U","CENTER_NAME":"EARTH","MEAN_ELEMENT_THEORY":"SGP4","MEAN_MOTION_DOT":"0.00012199","NORAD_CAT_ID":"52279","ECCENTRICITY":"0.00024480"},{"SEMIMAJOR_AXIS":"6917.879","ARG_OF_PERICENTER":"42.9625","MEAN_ANOMALY":"317.1538","OBJECT_ID":"2022-041V","BSTAR":"0.00009639300000","MEAN_MOTION":"15.08840293","PERIAPSIS":"538.228","OBJECT_NAME":"STARLINK-3764","REF_FRAME":"TEME","MEAN_MOTION_DDOT":"0.0000000000000","PERIOD":"95.438","ECCENTRICITY":"0.00021920","MEAN_MOTION_DOT":"0.00001246","MEAN_ELEMENT_THEORY":"SGP4","NORAD_CAT_ID":"52280","CENTER_NAME":"EARTH","CLASSIFICATION_TYPE":"U","RA_OF_ASC_NODE":"53.1993","TLE_LINE2":"2 52280  53.2199  53.1993 0002192  42.9625 317.1538 15.08840293 34656","DECAY_DATE":null,"INCLINATION":"53.2199","EPHEMERIS_TYPE":"0","APOAPSIS":"541.261","EPOCH":"2022-12-05T06:09:11.676960","COUNTRY_CODE":"US","TLE_LINE1":"1 52280U 22041V   22339.25638515  .00001246  00000-0  96393-4 0  9997","REV_AT_EPOCH":"3465","OBJECT_TYPE":"PAYLOAD","GP_ID":"219596011","LAUNCH_DATE":"2022-04-21","RCS_SIZE":"LARGE","FILE":"3682099","TIME_SYSTEM":"UTC","SITE":"AFETR","ELEMENT_SET_NO":"999"},{"ARG_OF_PERICENTER":"36.8475","MEAN_ANOMALY":"323.2675","SEMIMAJOR_AXIS":"6917.857","REF_FRAME":"TEME","MEAN_MOTION_DDOT":"0.0000000000000","OBJECT_NAME":"STARLINK-3779","PERIAPSIS":"538.130","PERIOD":"95.437","OBJECT_ID":"2022-041W","MEAN_MOTION":"15.08847815","BSTAR":"0.00011216000000","MEAN_ELEMENT_THEORY":"SGP4","MEAN_MOTION_DOT":"0.00001498","NORAD_CAT_ID":"52281","ECCENTRICITY":"0.00023000","TLE_LINE2":"2 52281  53.2200  52.2349 0002300  36.8475 323.2675 15.08847815 34681","RA_OF_ASC_NODE":"52.2349","CLASSIFICATION_TYPE":"U","CENTER_NAME":"EARTH","APOAPSIS":"541.313","EPHEMERIS_TYPE":"0","INCLINATION":"53.2200","DECAY_DATE":null,"TLE_LINE1":"1 52281U 22041W   22339.47077475  .00001498  00000-0  11216-3 0  9993","REV_AT_EPOCH":"3468","COUNTRY_CODE":"US","EPOCH":"2022-12-05T11:17:54.938400","RCS_SIZE":"LARGE","LAUNCH_DATE":"2022-04-21","OBJECT_TYPE":"PAYLOAD","GP_ID":"219596261","TIME_SYSTEM":"UTC","ELEMENT_SET_NO":"999","SITE":"AFETR","FILE":"3682099"},{"OBJECT_ID":"2022-041X","BSTAR":"0.00011398000000","MEAN_MOTION":"15.08844675","PERIAPSIS":"538.065","OBJECT_NAME":"STARLINK-3783","MEAN_MOTION_DDOT":"0.0000000000000","REF_FRAME":"TEME","PERIOD":"95.437","SEMIMAJOR_AXIS":"6917.866","ARG_OF_PERICENTER":"30.3524","MEAN_ANOMALY":"329.7607","CENTER_NAME":"EARTH","CLASSIFICATION_TYPE":"U","RA_OF_ASC_NODE":"41.4203","TLE_LINE2":"2 52282  53.2190  41.4203 0002409  30.3524 329.7607 15.08844675 36064","ECCENTRICITY":"0.00024090","MEAN_MOTION_DOT":"0.00001526","MEAN_ELEMENT_THEORY":"SGP4","NORAD_CAT_ID":"52282","EPOCH":"2022-12-05T15:32:13.371072","TLE_LINE1":"1 52282U 22041X   22339.64737698  .00001526  00000-0  11398-3 0  9996","COUNTRY_CODE":"US","REV_AT_EPOCH":"3606","DECAY_DATE":null,"EPHEMERIS_TYPE":"0","INCLINATION":"53.2190","APOAPSIS":"541.398","FILE":"3682271","TIME_SYSTEM":"UTC","SITE":"AFETR","ELEMENT_SET_NO":"999","OBJECT_TYPE":"PAYLOAD","GP_ID":"219601229","LAUNCH_DATE":"2022-04-21","RCS_SIZE":"LARGE"},{"ECCENTRICITY":"0.00022370","MEAN_MOTION_DOT":"0.00004085","MEAN_ELEMENT_THEORY":"SGP4","NORAD_CAT_ID":"52283","CLASSIFICATION_TYPE":"U","CENTER_NAME":"EARTH","TLE_LINE2":"2 52283  53.2172  51.0843 0002237  33.5431 326.5703 15.08847899 34727","RA_OF_ASC_NODE":"51.0843","SEMIMAJOR_AXIS":"6917.856","ARG_OF_PERICENTER":"33.5431","MEAN_ANOMALY":"326.5703","OBJECT_ID":"2022-041Y","MEAN_MOTION":"15.08847899","BSTAR":"0.00027454000000","MEAN_MOTION_DDOT":"0.0000000000000","REF_FRAME":"TEME","OBJECT_NAME":"STARLINK-3789","PERIAPSIS":"538.174","PERIOD":"95.437","OBJECT_TYPE":"PAYLOAD","GP_ID":"219628123","RCS_SIZE":"LARGE","LAUNCH_DATE":"2022-04-21","FILE":"3682465","TIME_SYSTEM":"UTC","SITE":"AFETR","ELEMENT_SET_NO":"999","INCLINATION":"53.2172","EPHEMERIS_TYPE":"0","DECAY_DATE":null,"APOAPSIS":"541.269","EPOCH":"2022-12-05T17:27:29.056032","COUNTRY_CODE":"US","TLE_LINE1":"1 52283U 22041Y   22339.72741963  .00004085  00000-0  27454-3 0  9999","REV_AT_EPOCH":"3472"},{"TLE_LINE1":"1 52284U 22041Z   22339.70624943  .00001331  00000-0  10169-3 0  9992","COUNTRY_CODE":"US","REV_AT_EPOCH":"3485","EPOCH":"2022-12-05T16:56:59.950752","APOAPSIS":"541.513","INCLINATION":"53.2206","EPHEMERIS_TYPE":"0","DECAY_DATE":null,"TIME_SYSTEM":"UTC","SITE":"AFETR","ELEMENT_SET_NO":"999","FILE":"3682465","RCS_SIZE":"LARGE","LAUNCH_DATE":"2022-04-21","OBJECT_TYPE":"PAYLOAD","GP_ID":"219626877","MEAN_MOTION_DDOT":"0.0000000000000","REF_FRAME":"TEME","OBJECT_NAME":"STARLINK-3561","PERIAPSIS":"537.893","PERIOD":"95.437","OBJECT_ID":"2022-041Z","MEAN_MOTION":"15.08853920","BSTAR":"0.00010169000000","ARG_OF_PERICENTER":"28.9490","MEAN_ANOMALY":"331.1647","SEMIMAJOR_AXIS":"6917.838","TLE_LINE2":"2 52284  53.2206  41.1573 0002616  28.9490 331.1647 15.08853920 34855","RA_OF_ASC_NODE":"41.1573","CLASSIFICATION_TYPE":"U","CENTER_NAME":"EARTH","MEAN_ELEMENT_THEORY":"SGP4","MEAN_MOTION_DOT":"0.00001331","NORAD_CAT_ID":"52284","ECCENTRICITY":"0.00026160"},{"RCS_SIZE":"LARGE","LAUNCH_DATE":"2022-04-21","OBJECT_TYPE":"PAYLOAD","GP_ID":"219596761","TIME_SYSTEM":"UTC","ELEMENT_SET_NO":"999","SITE":"AFETR","FILE":"3682099","APOAPSIS":"541.372","INCLINATION":"53.2191","EPHEMERIS_TYPE":"0","DECAY_DATE":null,"TLE_LINE1":"1 52285U 22041AA  22339.26006841  .00002293  00000-0  16210-3 0  9996","COUNTRY_CODE":"US","REV_AT_EPOCH":"3465","EPOCH":"2022-12-05T06:14:29.910624","MEAN_MOTION_DOT":"0.00002293","MEAN_ELEMENT_THEORY":"SGP4","NORAD_CAT_ID":"52285","ECCENTRICITY":"0.00023610","TLE_LINE2":"2 52285  53.2191  53.1828 0002361  32.8609 327.2530 15.08842312 34656","RA_OF_ASC_NODE":"53.1828","CLASSIFICATION_TYPE":"U","CENTER_NAME":"EARTH","ARG_OF_PERICENTER":"32.8609","MEAN_ANOMALY":"327.2530","SEMIMAJOR_AXIS":"6917.873","REF_FRAME":"TEME","MEAN_MOTION_DDOT":"0.0000000000000","OBJECT_NAME":"STARLINK-3775","PERIAPSIS":"538.105","PERIOD":"95.437","OBJECT_ID":"2022-041AA","MEAN_MOTION":"15.08842312","BSTAR":"0.00016210000000"},{"RCS_SIZE":"LARGE","LAUNCH_DATE":"2022-04-21","OBJECT_TYPE":"PAYLOAD","GP_ID":"219601244","TIME_SYSTEM":"UTC","ELEMENT_SET_NO":"999","SITE":"AFETR","FILE":"3682272","APOAPSIS":"541.378","EPHEMERIS_TYPE":"0","INCLINATION":"53.2210","DECAY_DATE":null,"REV_AT_EPOCH":"3605","TLE_LINE1":"1 52286U 22041AB  22339.56644271 -.00001229  00000-0 -59153-4 0  9999","COUNTRY_CODE":"US","EPOCH":"2022-12-05T13:35:40.650144","MEAN_MOTION_DOT":"-0.00001229","MEAN_ELEMENT_THEORY":"SGP4","NORAD_CAT_ID":"52286","ECCENTRICITY":"0.00022690","TLE_LINE2":"2 52286  53.2210  41.7836 0002269  41.3042 318.8122 15.08819533 36052","RA_OF_ASC_NODE":"41.7836","CLASSIFICATION_TYPE":"U","CENTER_NAME":"EARTH","ARG_OF_PERICENTER":"41.3042","MEAN_ANOMALY":"318.8122","SEMIMAJOR_AXIS":"6917.943","MEAN_MOTION_DDOT":"0.0000000000000","REF_FRAME":"TEME","PERIAPSIS":"538.238","OBJECT_NAME":"STARLINK-3802","PERIOD":"95.439","OBJECT_ID":"2022-041AB","MEAN_MOTION":"15.08819533","BSTAR":"-0.00005915300000"},{"OBJECT_TYPE":"PAYLOAD","GP_ID":"219597256","RCS_SIZE":"LARGE","LAUNCH_DATE":"2022-04-21","FILE":"3682099","TIME_SYSTEM":"UTC","ELEMENT_SET_NO":"999","SITE":"AFETR","INCLINATION":"53.2176","EPHEMERIS_TYPE":"0","DECAY_DATE":null,"APOAPSIS":"541.251","EPOCH":"2022-12-05T06:03:53.741376","TLE_LINE1":"1 52287U 22041AC  22339.25270534  .00000616  00000-0  56821-4 0  9999","COUNTRY_CODE":"US","REV_AT_EPOCH":"3465","ECCENTRICITY":"0.00021840","MEAN_MOTION_DOT":"0.00000616","MEAN_ELEMENT_THEORY":"SGP4","NORAD_CAT_ID":"52287","CLASSIFICATION_TYPE":"U","CENTER_NAME":"EARTH","TLE_LINE2":"2 52287  53.2176  53.2076 0002184  31.6847 328.4276 15.08841865 34653","RA_OF_ASC_NODE":"53.2076","SEMIMAJOR_AXIS":"6917.875","ARG_OF_PERICENTER":"31.6847","MEAN_ANOMALY":"328.4276","OBJECT_ID":"2022-041AC","MEAN_MOTION":"15.08841865","BSTAR":"0.00005682100000","MEAN_MOTION_DDOT":"0.0000000000000","REF_FRAME":"TEME","OBJECT_NAME":"STARLINK-3822","PERIAPSIS":"538.229","PERIOD":"95.437"},{"COUNTRY_CODE":"US","TLE_LINE1":"1 52288U 22041AD  22339.23154315  .00000533  00000-0  51580-4 0  9991","REV_AT_EPOCH":"3478","EPOCH":"2022-12-05T05:33:25.328160","APOAPSIS":"541.281","DECAY_DATE":null,"EPHEMERIS_TYPE":"0","INCLINATION":"53.2174","ELEMENT_SET_NO":"999","SITE":"AFETR","TIME_SYSTEM":"UTC","FILE":"3682099","LAUNCH_DATE":"2022-04-21","RCS_SIZE":"LARGE","GP_ID":"219596012","OBJECT_TYPE":"PAYLOAD","PERIOD":"95.438","PERIAPSIS":"538.212","OBJECT_NAME":"STARLINK-3776","MEAN_MOTION_DDOT":"0.0000000000000","REF_FRAME":"TEME","BSTAR":"0.00005158000000","MEAN_MOTION":"15.08839571","OBJECT_ID":"2022-041AD","MEAN_ANOMALY":"326.6638","ARG_OF_PERICENTER":"33.4494","SEMIMAJOR_AXIS":"6917.882","RA_OF_ASC_NODE":"43.2949","TLE_LINE2":"2 52288  53.2174  43.2949 0002218  33.4494 326.6638 15.08839571 34783","CENTER_NAME":"EARTH","CLASSIFICATION_TYPE":"U","NORAD_CAT_ID":"52288","MEAN_ELEMENT_THEORY":"SGP4","MEAN_MOTION_DOT":"0.00000533","ECCENTRICITY":"0.00022180"}];
